{"type": "FeatureCollection", "features": [ {"type": "Feature", "properties": {"norad_id": 37966, "name": "COSMOS 2251 DEB", "group": "cosmos-2251-debris", "lat": -24.410513362770544, "lon": -126.28093719370334, "alt_km": 540.002108377199, "timestamp": "2025-12-07T14:37:05.601423+00:00", "meta": {"OBJECT_NAME": "COSMOS 2251 DEB", "OBJECT_ID": "1993-036BPR", "EPOCH": "2025-12-04T00:57:24.425856", "MEAN_MOTION": 15.1122342, "ECCENTRICITY": 0.0008631, "INCLINATION": 73.977, "RA_OF_ASC_NODE": 248.6217, "ARG_OF_PERICENTER": 122.4784, "MEAN_ANOMALY": 237.7244, "EPHEMERIS_TYPE": 0, "CLASSIFICATION_TYPE": "U", "NORAD_CAT_ID": 37966, "ELEMENT_SET_NO": 999, "REV_AT_EPOCH": 85211, "BSTAR": 0.0061628837, "MEAN_MOTION_DOT": 0.00105178, "MEAN_MOTION_DDOT": 0}, "tle": {"line1": "1 37966U 93036BPR 25338.03986604  .00105178  00000+0  61629-2 0  9996", "line2": "2 37966  73.9770 248.6217 0008631 122.4784 237.7244 15.11223420852119"}}, "geometry": {"type": "Point", "coordinates": [-126.28093719370334, -24.410513362770544]}}, {"type": "Feature", "properties": {"norad_id": 37967, "name": "COSMOS 2251 DEB", "group": "cosmos-2251-debris", "lat": -60.54626288739257, "lon": -2.606163362556859, "alt_km": 683.043005765302, "timestamp": "2025-12-07T14:37:05.601434+00:00", "meta": {"OBJECT_NAME": "COSMOS 2251 DEB", "OBJECT_ID": "1993-036BPS", "EPOCH": "2025-12-06T17:28:11.954496", "MEAN_MOTION": 14.40422477, "ECCENTRICITY": 0.01507408, "INCLINATION": 74.0142, "RA_OF_ASC_NODE": 148.5192, "ARG_OF_PERICENTER": 288.596, "MEAN_ANOMALY": 69.8874, "EPHEMERIS_TYPE": 0, "CLASSIFICATION_TYPE": "U", "NORAD_CAT_ID": 37967, "ELEMENT_SET_NO": 999, "REV_AT_EPOCH": 64649, "BSTAR": 0.0024139779, "MEAN_MOTION_DOT": 8.753e-05, "MEAN_MOTION_DDOT": 0}, "tle": {"line1": "1 37967U 93036BPS 25340.72791614  .00008753  00000+0  24140-2 0  9999", "line2": "2 37967  74.0142 148.5192 0150740 288.5960  69.8874 14.40422477646493"}}, "geometry": {"type": "Point", "coordinates": [-2.606163362556859, -60.54626288739257]}}, {"type": "Feature", "properties": {"norad_id": 37968, "name": "COSMOS 2251 DEB", "group": "cosmos-2251-debris", "lat": 8.17051461780066, "lon": -76.01761966927835, "alt_km": 518.6842439555103, "timestamp": "2025-12-07T14:37:05.601444+00:00", "meta": {"OBJECT_NAME": "COSMOS 2251 DEB", "OBJECT_ID": "1993-036BPT", "EPOCH": "2025-12-03T03:21:20.781504", "MEAN_MOTION": 15.00197638, "ECCENTRICITY": 0.00808241, "INCLINATION": 74.0001, "RA_OF_ASC_NODE": 290.7252, "ARG_OF_PERICENTER": 48.8285, "MEAN_ANOMALY": 311.9836, "EPHEMERIS_TYPE": 0, "CLASSIFICATION_TYPE": "U", "NORAD_CAT_ID": 37968, "ELEMENT_SET_NO": 999, "REV_AT_EPOCH": 60075, "BSTAR": 0.0013441412, "MEAN_MOTION_DOT": 0.00018013, "MEAN_MOTION_DDOT": 0}, "tle": {"line1": "1 37968U 93036BPT 25337.13982386  .00018013  00000+0  13441-2 0  9991", "line2": "2 37968  74.0001 290.7252 0080824  48.8285 311.9836 15.00197638600750"}}, "geometry": {"type": "Point", "coordinates": [-76.01761966927835, 8.17051461780066]}}, {"type": "Feature", "properties": {"norad_id": 37971, "name": "COSMOS 2251 DEB", "group": "cosmos-2251-debris", "lat": 14.065674558409453, "lon": -132.74401953808842, "alt_km": 687.5904583936708, "timestamp": "2025-12-07T14:37:05.601455+00:00", "meta": {"OBJECT_NAME": "COSMOS 2251 DEB", "OBJECT_ID": "1993-036BPW", "EPOCH": "2025-12-06T21:16:48.123840", "MEAN_MOTION": 14.48493399, "ECCENTRICITY": 0.00679293, "INCLINATION": 73.9937, "RA_OF_ASC_NODE": 52.7366, "ARG_OF_PERICENTER": 192.546, "MEAN_ANOMALY": 167.4012, "EPHEMERIS_TYPE": 0, "CLASSIFICATION_TYPE": "U", "NORAD_CAT_ID": 37971, "ELEMENT_SET_NO": 999, "REV_AT_EPOCH": 60593, "BSTAR": 0.0033373283, "MEAN_MOTION_DOT": 0.00012889, "MEAN_MOTION_DDOT": 0}, "tle": {"line1": "1 37971U 93036BPW 25340.88666810  .00012889  00000+0  33373-2 0  9993", "line2": "2 37971  73.9937  52.7366 0067929 192.5460 167.4012 14.48493399605934"}}, "geometry": {"type": "Point", "coordinates": [-132.74401953808842, 14.065674558409453]}}, {"type": "Feature", "properties": {"norad_id": 37975, "name": "COSMOS 2251 DEB", "group": "cosmos-2251-debris", "lat": -73.98111785100134, "lon": -118.05747563214366, "alt_km": 610.7516422179351, "timestamp": "2025-12-07T14:37:05.601464+00:00", "meta": {"OBJECT_NAME": "COSMOS 2251 DEB", "OBJECT_ID": "1993-036BQA", "EPOCH": "2025-12-05T17:27:37.480032", "MEAN_MOTION": 14.75465418, "ECCENTRICITY": 0.00969737, "INCLINATION": 74.0024, "RA_OF_ASC_NODE": 337.8196, "ARG_OF_PERICENTER": 328.6738, "MEAN_ANOMALY": 30.8678, "EPHEMERIS_TYPE": 0, "CLASSIFICATION_TYPE": "U", "NORAD_CAT_ID": 37975, "ELEMENT_SET_NO": 999, "REV_AT_EPOCH": 69642, "BSTAR": 0.0063754192, "MEAN_MOTION_DOT": 0.00047082, "MEAN_MOTION_DDOT": 0}, "tle": {"line1": "1 37975U 93036BQA 25339.72751713  .00047082  00000+0  63754-2 0  9994", "line2": "2 37975  74.0024 337.8196 0096973 328.6738  30.8678 14.75465418696422"}}, "geometry": {"type": "Point", "coordinates": [-118.05747563214366, -73.98111785100134]}}, {"type": "Feature", "properties": {"norad_id": 37978, "name": "COSMOS 2251 DEB", "group": "cosmos-2251-debris", "lat": -40.22930606315303, "lon": -65.22186875417185, "alt_km": 339.37574623402816, "timestamp": "2025-12-07T14:37:05.601475+00:00", "meta": {"OBJECT_NAME": "COSMOS 2251 DEB", "OBJECT_ID": "1993-036BQD", "EPOCH": "2025-11-19T05:08:53.100672", "MEAN_MOTION": 15.61137081, "ECCENTRICITY": 0.00148985, "INCLINATION": 74.0238, "RA_OF_ASC_NODE": 142.2198, "ARG_OF_PERICENTER": 140.9849, "MEAN_ANOMALY": 219.2448, "EPHEMERIS_TYPE": 0, "CLASSIFICATION_TYPE": "U", "NORAD_CAT_ID": 37978, "ELEMENT_SET_NO": 999, "REV_AT_EPOCH": 8032, "BSTAR": 0.0043958825, "MEAN_MOTION_DOT": 0.0039117, "MEAN_MOTION_DDOT": 0}, "tle": {"line1": "1 37978U 93036BQD 25323.21450348  .00391170  00000+0  43959-2 0  9999", "line2": "2 37978  74.0238 142.2198 0014898 140.9849 219.2448 15.61137081 80328"}}, "geometry": {"type": "Point", "coordinates": [-65.22186875417185, -40.22930606315303]}}, {"type": "Feature", "properties": {"norad_id": 37985, "name": "COSMOS 2251 DEB", "group": "cosmos-2251-debris", "lat": 1.7383480851813953, "lon": -84.34699803707544, "alt_km": 764.2074217431837, "timestamp": "2025-12-07T14:37:05.601485+00:00", "meta": {"OBJECT_NAME": "COSMOS 2251 DEB", "OBJECT_ID": "1993-036BQL", "EPOCH": "2025-12-05T12:25:56.322336", "MEAN_MOTION": 14.35479153, "ECCENTRICITY": 0.00205449, "INCLINATION": 74.0253, "RA_OF_ASC_NODE": 278.9914, "ARG_OF_PERICENTER": 43.9287, "MEAN_ANOMALY": 316.3494, "EPHEMERIS_TYPE": 0, "CLASSIFICATION_TYPE": "U", "NORAD_CAT_ID": 37985, "ELEMENT_SET_NO": 999, "REV_AT_EPOCH": 64813, "BSTAR": 0.00010256916, "MEAN_MOTION_DOT": 2.69e-06, "MEAN_MOTION_DDOT": 0}, "tle": {"line1": "1 37985U 93036BQL 25339.51801299  .00000269  00000+0  10257-3 0  9994", "line2": "2 37985  74.0253 278.9914 0020544  43.9287 316.3494 14.35479153648137"}}, "geometry": {"type": "Point", "coordinates": [-84.34699803707544, 1.7383480851813953]}}, {"type": "Feature", "properties": {"norad_id": 37988, "name": "COSMOS 2251 DEB", "group": "cosmos-2251-debris", "lat": 65.6331266312826, "lon": 174.82261402675795, "alt_km": 621.8137576214967, "timestamp": "2025-12-07T14:37:05.601495+00:00", "meta": {"OBJECT_NAME": "COSMOS 2251 DEB", "OBJECT_ID": "1993-036BQP", "EPOCH": "2025-12-06T13:36:37.169568", "MEAN_MOTION": 14.68777403, "ECCENTRICITY": 0.006321, "INCLINATION": 74.0632, "RA_OF_ASC_NODE": 35.9503, "ARG_OF_PERICENTER": 75.4533, "MEAN_ANOMALY": 285.3638, "EPHEMERIS_TYPE": 0, "CLASSIFICATION_TYPE": "U", "NORAD_CAT_ID": 37988, "ELEMENT_SET_NO": 999, "REV_AT_EPOCH": 23305, "BSTAR": 0.00139488, "MEAN_MOTION_DOT": 8.366e-05, "MEAN_MOTION_DDOT": 0}, "tle": {"line1": "1 37988U 93036BQP 25340.56709687  .00008366  00000+0  13949-2 0  9998", "line2": "2 37988  74.0632  35.9503 0063210  75.4533 285.3638 14.68777403233058"}}, "geometry": {"type": "Point", "coordinates": [174.82261402675795, 65.6331266312826]}}, {"type": "Feature", "properties": {"norad_id": 37993, "name": "COSMOS 2251 DEB", "group": "cosmos-2251-debris", "lat": 48.563237467947374, "lon": -164.34816827837534, "alt_km": 701.7772930181873, "timestamp": "2025-12-07T14:37:05.601505+00:00", "meta": {"OBJECT_NAME": "COSMOS 2251 DEB", "OBJECT_ID": "1993-036BQU", "EPOCH": "2025-12-03T19:55:21.764064", "MEAN_MOTION": 14.59748626, "ECCENTRICITY": 0.00218643, "INCLINATION": 74.0235, "RA_OF_ASC_NODE": 183.9251, "ARG_OF_PERICENTER": 273.6547, "MEAN_ANOMALY": 86.2118, "EPHEMERIS_TYPE": 0, "CLASSIFICATION_TYPE": "U", "NORAD_CAT_ID": 37993, "ELEMENT_SET_NO": 999, "REV_AT_EPOCH": 65187, "BSTAR": 0.0022910126, "MEAN_MOTION_DOT": 0.00010959, "MEAN_MOTION_DDOT": 0}, "tle": {"line1": "1 37993U 93036BQU 25337.83011301  .00010959  00000+0  22910-2 0  9998", "line2": "2 37993  74.0235 183.9251 0021864 273.6547  86.2118 14.59748626651873"}}, "geometry": {"type": "Point", "coordinates": [-164.34816827837534, 48.563237467947374]}}, {"type": "Feature", "properties": {"norad_id": 37994, "name": "COSMOS 2251 DEB", "group": "cosmos-2251-debris", "lat": 26.345234806103818, "lon": 97.01374530150665, "alt_km": 772.0114949789413, "timestamp": "2025-12-07T14:37:05.601515+00:00", "meta": {"OBJECT_NAME": "COSMOS 2251 DEB", "OBJECT_ID": "1993-036BQV", "EPOCH": "2025-12-06T19:34:03.682560", "MEAN_MOTION": 14.39601591, "ECCENTRICITY": 0.00226443, "INCLINATION": 74.0359, "RA_OF_ASC_NODE": 286.6284, "ARG_OF_PERICENTER": 7.2523, "MEAN_ANOMALY": 352.8955, "EPHEMERIS_TYPE": 0, "CLASSIFICATION_TYPE": "U", "NORAD_CAT_ID": 37994, "ELEMENT_SET_NO": 999, "REV_AT_EPOCH": 76979, "BSTAR": 0.00070925453, "MEAN_MOTION_DOT": 2.197e-05, "MEAN_MOTION_DDOT": 0}, "tle": {"line1": "1 37994U 93036BQV 25340.81532040  .00002197  00000+0  70925-3 0  9994", "line2": "2 37994  74.0359 286.6284 0022644   7.2523 352.8955 14.39601591769799"}}, "geometry": {"type": "Point", "coordinates": [97.01374530150665, 26.345234806103818]}}]}